[
  {
    "COMMENT": "GENERATED VIA SPACETRACK.ORG API",
    "ORIGINATOR": "18 SPCS",
    "NORAD_CAT_ID": "27386",
    "OBJECT_NAME": "ENVISAT",
    "OBJECT_TYPE": "PAYLOAD",
    "CLASSIFICATION_TYPE": "U",
    "INTLDES": "02009A",
    "EPOCH": "2023-05-24 10:39:27",
    "EPOCH_MICROSECONDS": "489024",
    "MEAN_MOTION": "14.38346617",
    "ECCENTRICITY": "0.0001267",
    "INCLINATION": "98.2295",
    "RA_OF_ASC_NODE": "115.4241",
    "ARG_OF_PERICENTER": "88.8858",
    "MEAN_ANOMALY": "79.2635",
    "EPHEMERIS_TYPE": "0",
    "ELEMENT_SET_NO": "999",
    "REV_AT_EPOCH": "11247",
    "BSTAR": "0.00010743",
    "MEAN_MOTION_DOT": "0.00000286",
    "MEAN_MOTION_DDOT": "0",
    "FILE": "3916549",
    "TLE_LINE0": "0 ENVISAT",
    "TLE_LINE1": "1 27386U 02009A   23144.44406816  .00000286  00000-0  10743-3 0  9998",
    "TLE_LINE2": "2 27386  98.2295 115.4241 0001267  88.8858  79.2635 14.38346617112472",
    "OBJECT_ID": "2002-009A",
    "OBJECT_NUMBER": "27386",
    "SEMIMAJOR_AXIS": "7142.103",
    "PERIOD": "100.115",
    "APOGEE": "764.873",
    "PERIGEE": "763.064",
    "DECAYED": "0"
  },
  {
    "COMMENT": "GENERATED VIA SPACETRACK.ORG API",
    "ORIGINATOR": "18 SPCS",
    "NORAD_CAT_ID": "27386",
    "OBJECT_NAME": "ENVISAT",
    "OBJECT_TYPE": "PAYLOAD",
    "CLASSIFICATION_TYPE": "U",
    "INTLDES": "02009A",
    "EPOCH": "2023-05-25 21:11:05",
    "EPOCH_MICROSECONDS": "11296",
    "MEAN_MOTION": "14.38347187",
    "ECCENTRICITY": "0.0001276",
    "INCLINATION": "98.2294",
    "RA_OF_ASC_NODE": "116.8033",
    "ARG_OF_PERICENTER": "89.3405",
    "MEAN_ANOMALY": "323.7697",
    "EPHEMERIS_TYPE": "0",
    "ELEMENT_SET_NO": "999",
    "REV_AT_EPOCH": "11275",
    "BSTAR": "0.000088791",
    "MEAN_MOTION_DOT": "0.00000229",
    "MEAN_MOTION_DDOT": "0",
    "FILE": "3916970",
    "TLE_LINE0": "0 ENVISAT",
    "TLE_LINE1": "1 27386U 02009A   23145.88269689  .00000229  00000-0  88791-4 0  9998",
    "TLE_LINE2": "2 27386  98.2294 116.8033 0001276  89.3405 323.7697 14.38347187112758",
    "OBJECT_ID": "2002-009A",
    "OBJECT_NUMBER": "27386",
    "SEMIMAJOR_AXIS": "7142.102",
    "PERIOD": "100.115",
    "APOGEE": "764.878",
    "PERIGEE": "763.055",
    "DECAYED": "0"
  },
  {
    "COMMENT": "GENERATED VIA SPACETRACK.ORG API",
    "ORIGINATOR": "18 SPCS",
    "NORAD_CAT_ID": "27386",
    "OBJECT_NAME": "ENVISAT",
    "OBJECT_TYPE": "PAYLOAD",
    "CLASSIFICATION_TYPE": "U",
    "INTLDES": "02009A",
    "EPOCH": "2023-05-25 22:55:22",
    "EPOCH_MICROSECONDS": "526976",
    "MEAN_MOTION": "14.38347242",
    "ECCENTRICITY": "0.0001273",
    "INCLINATION": "98.2294",
    "RA_OF_ASC_NODE": "116.8728",
    "ARG_OF_PERICENTER": "89.211",
    "MEAN_ANOMALY": "338.7014",
    "EPHEMERIS_TYPE": "0",
    "ELEMENT_SET_NO": "999",
    "REV_AT_EPOCH": "11269",
    "BSTAR": "0.000088977",
    "MEAN_MOTION_DOT": "0.00000229",
    "MEAN_MOTION_DDOT": "0",
    "FILE": "3917122",
    "TLE_LINE0": "0 ENVISAT",
    "TLE_LINE1": "1 27386U 02009A   23145.95512184  .00000229  00000-0  88977-4 0  9993",
    "TLE_LINE2": "2 27386  98.2294 116.8728 0001273  89.2110 338.7014 14.38347242112692",
    "OBJECT_ID": "2002-009A",
    "OBJECT_NUMBER": "27386",
    "SEMIMAJOR_AXIS": "7142.101",
    "PERIOD": "100.115",
    "APOGEE": "764.876",
    "PERIGEE": "763.057",
    "DECAYED": "0"
  },
  {
    "COMMENT": "GENERATED VIA SPACETRACK.ORG API",
    "ORIGINATOR": "18 SPCS",
    "NORAD_CAT_ID": "27386",
    "OBJECT_NAME": "ENVISAT",
    "OBJECT_TYPE": "PAYLOAD",
    "CLASSIFICATION_TYPE": "U",
    "INTLDES": "02009A",
    "EPOCH": "2023-05-25 22:55:22",
    "EPOCH_MICROSECONDS": "526976",
    "MEAN_MOTION": "14.38347242",
    "ECCENTRICITY": "0.0001273",
    "INCLINATION": "98.2294",
    "RA_OF_ASC_NODE": "116.8728",
    "ARG_OF_PERICENTER": "89.211",
    "MEAN_ANOMALY": "338.7014",
    "EPHEMERIS_TYPE": "0",
    "ELEMENT_SET_NO": "999",
    "REV_AT_EPOCH": "11276",
    "BSTAR": "0.000088977",
    "MEAN_MOTION_DOT": "0.00000229",
    "MEAN_MOTION_DDOT": "0",
    "FILE": "3917349",
    "TLE_LINE0": "0 ENVISAT",
    "TLE_LINE1": "1 27386U 02009A   23145.95512184  .00000229  00000-0  88977-4 0  9993",
    "TLE_LINE2": "2 27386  98.2294 116.8728 0001273  89.2110 338.7014 14.38347242112760",
    "OBJECT_ID": "2002-009A",
    "OBJECT_NUMBER": "27386",
    "SEMIMAJOR_AXIS": "7142.101",
    "PERIOD": "100.115",
    "APOGEE": "764.876",
    "PERIGEE": "763.057",
    "DECAYED": "0"
  },
  {
    "COMMENT": "GENERATED VIA SPACETRACK.ORG API",
    "ORIGINATOR": "18 SPCS",
    "NORAD_CAT_ID": "27386",
    "OBJECT_NAME": "ENVISAT",
    "OBJECT_TYPE": "PAYLOAD",
    "CLASSIFICATION_TYPE": "U",
    "INTLDES": "02009A",
    "EPOCH": "2023-05-26 12:28:07",
    "EPOCH_MICROSECONDS": "478400",
    "MEAN_MOTION": "14.38347508",
    "ECCENTRICITY": "0.0001279",
    "INCLINATION": "98.2295",
    "RA_OF_ASC_NODE": "117.4138",
    "ARG_OF_PERICENTER": "89.1243",
    "MEAN_ANOMALY": "19.629",
    "EPHEMERIS_TYPE": "0",
    "ELEMENT_SET_NO": "999",
    "REV_AT_EPOCH": "11277",
    "BSTAR": "0.000085693",
    "MEAN_MOTION_DOT": "0.00000219",
    "MEAN_MOTION_DDOT": "0",
    "FILE": "3917630",
    "TLE_LINE0": "0 ENVISAT",
    "TLE_LINE1": "1 27386U 02009A   23146.51953100  .00000219  00000-0  85693-4 0  9994",
    "TLE_LINE2": "2 27386  98.2295 117.4138 0001279  89.1243  19.6290 14.38347508112772",
    "OBJECT_ID": "2002-009A",
    "OBJECT_NUMBER": "27386",
    "SEMIMAJOR_AXIS": "7142.101",
    "PERIOD": "100.115",
    "APOGEE": "764.879",
    "PERIGEE": "763.052",
    "DECAYED": "0"
  },
  {
    "COMMENT": "GENERATED VIA SPACETRACK.ORG API",
    "ORIGINATOR": "18 SPCS",
    "NORAD_CAT_ID": "27386",
    "OBJECT_NAME": "ENVISAT",
    "OBJECT_TYPE": "PAYLOAD",
    "CLASSIFICATION_TYPE": "U",
    "INTLDES": "02009A",
    "EPOCH": "2023-05-26 18:56:00",
    "EPOCH_MICROSECONDS": "140928",
    "MEAN_MOTION": "14.38347634",
    "ECCENTRICITY": "0.0001277",
    "INCLINATION": "98.2295",
    "RA_OF_ASC_NODE": "117.6721",
    "ARG_OF_PERICENTER": "89.189",
    "MEAN_ANOMALY": "333.5114",
    "EPHEMERIS_TYPE": "0",
    "ELEMENT_SET_NO": "999",
    "REV_AT_EPOCH": "11288",
    "BSTAR": "0.000084266",
    "MEAN_MOTION_DOT": "0.00000215",
    "MEAN_MOTION_DDOT": "0",
    "FILE": "3917748",
    "TLE_LINE0": "0 ENVISAT",
    "TLE_LINE1": "1 27386U 02009A   23146.78889052  .00000215  00000-0  84266-4 0  9998",
    "TLE_LINE2": "2 27386  98.2295 117.6721 0001277  89.1890 333.5114 14.38347634112883",
    "OBJECT_ID": "2002-009A",
    "OBJECT_NUMBER": "27386",
    "SEMIMAJOR_AXIS": "7142.100",
    "PERIOD": "100.115",
    "APOGEE": "764.877",
    "PERIGEE": "763.053",
    "DECAYED": "0"
  },
  {
    "COMMENT": "GENERATED VIA SPACETRACK.ORG API",
    "ORIGINATOR": "18 SPCS",
    "NORAD_CAT_ID": "27386",
    "OBJECT_NAME": "ENVISAT",
    "OBJECT_TYPE": "PAYLOAD",
    "CLASSIFICATION_TYPE": "U",
    "INTLDES": "02009A",
    "EPOCH": "2023-05-26 22:15:43",
    "EPOCH_MICROSECONDS": "778592",
    "MEAN_MOTION": "14.38347688",
    "ECCENTRICITY": "0.0001274",
    "INCLINATION": "98.2295",
    "RA_OF_ASC_NODE": "117.8051",
    "ARG_OF_PERICENTER": "89.1367",
    "MEAN_ANOMALY": "331.3397",
    "EPHEMERIS_TYPE": "0",
    "ELEMENT_SET_NO": "999",
    "REV_AT_EPOCH": "11283",
    "BSTAR": "0.000082198",
    "MEAN_MOTION_DOT": "0.00000209",
    "MEAN_MOTION_DDOT": "0",
    "FILE": "3917850",
    "TLE_LINE0": "0 ENVISAT",
    "TLE_LINE1": "1 27386U 02009A   23146.92759003  .00000209  00000-0  82198-4 0  9991",
    "TLE_LINE2": "2 27386  98.2295 117.8051 0001274  89.1367 331.3397 14.38347688112830",
    "OBJECT_ID": "2002-009A",
    "OBJECT_NUMBER": "27386",
    "SEMIMAJOR_AXIS": "7142.100",
    "PERIOD": "100.115",
    "APOGEE": "764.875",
    "PERIGEE": "763.055",
    "DECAYED": "0"
  },
  {
    "COMMENT": "GENERATED VIA SPACETRACK.ORG API",
    "ORIGINATOR": "18 SPCS",
    "NORAD_CAT_ID": "27386",
    "OBJECT_NAME": "ENVISAT",
    "OBJECT_TYPE": "PAYLOAD",
    "CLASSIFICATION_TYPE": "U",
    "INTLDES": "02009A",
    "EPOCH": "2023-05-26 22:15:43",
    "EPOCH_MICROSECONDS": "778592",
    "MEAN_MOTION": "14.38347688",
    "ECCENTRICITY": "0.0001274",
    "INCLINATION": "98.2295",
    "RA_OF_ASC_NODE": "117.8051",
    "ARG_OF_PERICENTER": "89.1367",
    "MEAN_ANOMALY": "331.3397",
    "EPHEMERIS_TYPE": "0",
    "ELEMENT_SET_NO": "999",
    "REV_AT_EPOCH": "11290",
    "BSTAR": "0.000082198",
    "MEAN_MOTION_DOT": "0.00000209",
    "MEAN_MOTION_DDOT": "0",
    "FILE": "3917998",
    "TLE_LINE0": "0 ENVISAT",
    "TLE_LINE1": "1 27386U 02009A   23146.92759003  .00000209  00000-0  82198-4 0  9991",
    "TLE_LINE2": "2 27386  98.2295 117.8051 0001274  89.1367 331.3397 14.38347688112908",
    "OBJECT_ID": "2002-009A",
    "OBJECT_NUMBER": "27386",
    "SEMIMAJOR_AXIS": "7142.100",
    "PERIOD": "100.115",
    "APOGEE": "764.875",
    "PERIGEE": "763.055",
    "DECAYED": "0"
  },
  {
    "COMMENT": "GENERATED VIA SPACETRACK.ORG API",
    "ORIGINATOR": "18 SPCS",
    "NORAD_CAT_ID": "27386",
    "OBJECT_NAME": "ENVISAT",
    "OBJECT_TYPE": "PAYLOAD",
    "CLASSIFICATION_TYPE": "U",
    "INTLDES": "02009A",
    "EPOCH": "2023-05-27 10:11:10",
    "EPOCH_MICROSECONDS": "585248",
    "MEAN_MOTION": "14.38347909",
    "ECCENTRICITY": "0.0001282",
    "INCLINATION": "98.2295",
    "RA_OF_ASC_NODE": "118.2814",
    "ARG_OF_PERICENTER": "89.3548",
    "MEAN_ANOMALY": "22.2801",
    "EPHEMERIS_TYPE": "0",
    "ELEMENT_SET_NO": "999",
    "REV_AT_EPOCH": "11297",
    "BSTAR": "0.000078078",
    "MEAN_MOTION_DOT": "0.00000196",
    "MEAN_MOTION_DDOT": "0",
    "FILE": "3918387",
    "TLE_LINE0": "0 ENVISAT",
    "TLE_LINE1": "1 27386U 02009A   23147.42442807  .00000196  00000-0  78078-4 0  9995",
    "TLE_LINE2": "2 27386  98.2295 118.2814 0001282  89.3548  22.2801 14.38347909112971",
    "OBJECT_ID": "2002-009A",
    "OBJECT_NUMBER": "27386",
    "SEMIMAJOR_AXIS": "7142.099",
    "PERIOD": "100.115",
    "APOGEE": "764.880",
    "PERIGEE": "763.049",
    "DECAYED": "0"
  }
]